{
  "type": "FeatureCollection",
  "features": [
    {
      "type": "Feature",
      "properties": {
        "norad_id": 30153,
        "name": "FENGYUN 1C DEB",
        "group": "fengyun-1c-debris",
        "lat": -40.35166088695715,
        "lon": 146.14763110409172,
        "alt_km": 1100.3292166408155,
        "timestamp": "2025-12-10T23:33:13.092315+00:00",
        "meta_object_name": "FENGYUN 1C DEB",
        "meta_object_id": "1999-025TJ",
        "meta_epoch": "2025-12-10T11:01:05.985120",
        "meta_mean_motion": 13.78759563,
        "meta_eccentricity": 0.02008249,
        "meta_inclination": 100.4668,
        "meta_ra_of_asc_node": 334.6074,
        "meta_arg_of_pericenter": 11.3974,
        "meta_mean_anomaly": 139.7419,
        "meta_ephemeris_type": 0,
        "meta_classification_type": "U",
        "meta_norad_cat_id": 30153,
        "meta_element_set_no": 999,
        "meta_rev_at_epoch": 94743,
        "meta_bstar": 0.0017988339,
        "meta_mean_motion_dot": 2.074e-05,
        "meta_mean_motion_ddot": 0,
        "tle_line1": "1 30153U 99025TJ  25344.45909705  .00002074  00000+0  17988-2 0  9991",
        "tle_line2": "2 30153 100.4668 334.6074 0200824  11.3974 139.7419 13.78759563947432"
      },
      "geometry": {
        "type": "Point",
        "coordinates": [
          146.14763110409172,
          -40.35166088695715
        ]
      }
    },
    {
      "type": "Feature",
      "properties": {
        "norad_id": 30154,
        "name": "FENGYUN 1C DEB",
        "group": "fengyun-1c-debris",
        "lat": 63.848062582457096,
        "lon": 9.316100987819965,
        "alt_km": 1035.3125638283436,
        "timestamp": "2025-12-10T23:33:13.092324+00:00",
        "meta_object_name": "FENGYUN 1C DEB",
        "meta_object_id": "1999-025TK",
        "meta_epoch": "2025-12-10T01:02:34.410912",
        "meta_mean_motion": 13.85972701,
        "meta_eccentricity": 0.01828342,
        "meta_inclination": 98.45,
        "meta_ra_of_asc_node": 26.0913,
        "meta_arg_of_pericenter": 206.0498,
        "meta_mean_anomaly": 223.2376,
        "meta_ephemeris_type": 0,
        "meta_classification_type": "U",
        "meta_norad_cat_id": 30154,
        "meta_element_set_no": 999,
        "meta_rev_at_epoch": 94947,
        "meta_bstar": 0.0020426431,
        "meta_mean_motion_dot": 2.64e-05,
        "meta_mean_motion_ddot": 0,
        "tle_line1": "1 30154U 99025TK  25344.04345383  .00002640  00000+0  20426-2 0  9993",
        "tle_line2": "2 30154  98.4500  26.0913 0182834 206.0498 223.2376 13.85972701949478"
      },
      "geometry": {
        "type": "Point",
        "coordinates": [
          9.316100987819965,
          63.848062582457096
        ]
      }
    },
    {
      "type": "Feature",
      "properties": {
        "norad_id": 30155,
        "name": "FENGYUN 1C DEB",
        "group": "fengyun-1c-debris",
        "lat": 2.8214470105329235,
        "lon": 57.98411804492927,
        "alt_km": 815.8025535018351,
        "timestamp": "2025-12-10T23:33:13.092333+00:00",
        "meta_object_name": "FENGYUN 1C DEB",
        "meta_object_id": "1999-025TL",
        "meta_epoch": "2025-12-09T21:19:20.639712",
        "meta_mean_motion": 13.73784412,
        "meta_eccentricity": 0.02418017,
        "meta_inclination": 99.7513,
        "meta_ra_of_asc_node": 57.3547,
        "meta_arg_of_pericenter": 351.2384,
        "meta_mean_anomaly": 8.458,
        "meta_ephemeris_type": 0,
        "meta_classification_type": "U",
        "meta_norad_cat_id": 30155,
        "meta_element_set_no": 999,
        "meta_rev_at_epoch": 93825,
        "meta_bstar": 0.0022487176,
        "meta_mean_motion_dot": 2.551e-05,
        "meta_mean_motion_ddot": 0,
        "tle_line1": "1 30155U 99025TL  25343.88843333  .00002551  00000+0  22487-2 0  9993",
        "tle_line2": "2 30155  99.7513  57.3547 0241801 351.2384   8.4580 13.73784412938255"
      },
      "geometry": {
        "type": "Point",
        "coordinates": [
          57.98411804492927,
          2.8214470105329235
        ]
      }
    },
    {
      "type": "Feature",
      "properties": {
        "norad_id": 30156,
        "name": "FENGYUN 1C DEB",
        "group": "fengyun-1c-debris",
        "lat": -29.69852922518176,
        "lon": 126.93903474099615,
        "alt_km": 886.4352423838536,
        "timestamp": "2025-12-10T23:33:13.092342+00:00",
        "meta_object_name": "FENGYUN 1C DEB",
        "meta_object_id": "1999-025TM",
        "meta_epoch": "2025-12-10T09:22:01.202880",
        "meta_mean_motion": 13.80799854,
        "meta_eccentricity": 0.01995282,
        "meta_inclination": 98.9188,
        "meta_ra_of_asc_node": 311.5191,
        "meta_arg_of_pericenter": 269.23,
        "meta_mean_anomaly": 245.9276,
        "meta_ephemeris_type": 0,
        "meta_classification_type": "U",
        "meta_norad_cat_id": 30156,
        "meta_element_set_no": 999,
        "meta_rev_at_epoch": 94658,
        "meta_bstar": 0.0022067014,
        "meta_mean_motion_dot": 2.658e-05,
        "meta_mean_motion_ddot": 0,
        "tle_line1": "1 30156U 99025TM  25344.39029170  .00002658  00000+0  22067-2 0  9998",
        "tle_line2": "2 30156  98.9188 311.5191 0199528 269.2300 245.9276 13.80799854946588"
      },
      "geometry": {
        "type": "Point",
        "coordinates": [
          126.93903474099615,
          -29.69852922518176
        ]
      }
    },
    {
      "type": "Feature",
      "properties": {
        "norad_id": 30157,
        "name": "FENGYUN 1C DEB",
        "group": "fengyun-1c-debris",
        "lat": 78.598016326737,
        "lon": 32.4470323966001,
        "alt_km": 745.6602452373127,
        "timestamp": "2025-12-10T23:33:13.092351+00:00",
        "meta_object_name": "FENGYUN 1C DEB",
        "meta_object_id": "1999-025TN",
        "meta_epoch": "2025-12-07T19:18:40.552992",
        "meta_mean_motion": 14.44985818,
        "meta_eccentricity": 0.00369925,
        "meta_inclination": 98.7157,
        "meta_ra_of_asc_node": 78.7105,
        "meta_arg_of_pericenter": 207.5655,
        "meta_mean_anomaly": 279.1312,
        "meta_ephemeris_type": 0,
        "meta_classification_type": "U",
        "meta_norad_cat_id": 30157,
        "meta_element_set_no": 999,
        "meta_rev_at_epoch": 98001,
        "meta_bstar": 0.0037873457,
        "meta_mean_motion_dot": 0.000133,
        "meta_mean_motion_ddot": 0,
        "tle_line1": "1 30157U 99025TN  25341.80463603  .00013300  00000+0  37873-2 0  9992",
        "tle_line2": "2 30157  98.7157  78.7105 0036992 207.5655 279.1312 14.44985818980017"
      },
      "geometry": {
        "type": "Point",
        "coordinates": [
          32.4470323966001,
          78.598016326737
        ]
      }
    },
    {
      "type": "Feature",
      "properties": {
        "norad_id": 30160,
        "name": "FENGYUN 1C DEB",
        "group": "fengyun-1c-debris",
        "lat": 55.71799939900289,
        "lon": -79.51054686029397,
        "alt_km": 1020.5973749696777,
        "timestamp": "2025-12-10T23:33:13.092364+00:00",
        "meta_object_name": "FENGYUN 1C DEB",
        "meta_object_id": "1999-025TR",
        "meta_epoch": "2025-12-10T15:12:52.085088",
        "meta_mean_motion": 13.42885406,
        "meta_eccentricity": 0.03426651,
        "meta_inclination": 98.8859,
        "meta_ra_of_asc_node": 293.4491,
        "meta_arg_of_pericenter": 133.1293,
        "meta_mean_anomaly": 48.5509,
        "meta_ephemeris_type": 0,
        "meta_classification_type": "U",
        "meta_norad_cat_id": 30160,
        "meta_element_set_no": 999,
        "meta_rev_at_epoch": 92385,
        "meta_bstar": 0.0010660098,
        "meta_mean_motion_dot": 8.26e-06,
        "meta_mean_motion_ddot": 0,
        "tle_line1": "1 30160U 99025TR  25344.63393617  .00000826  00000+0  10660-2 0  9991",
        "tle_line2": "2 30160  98.8859 293.4491 0342665 133.1293  48.5509 13.42885406923858"
      },
      "geometry": {
        "type": "Point",
        "coordinates": [
          -79.51054686029397,
          55.71799939900289
        ]
      }
    },
    {
      "type": "Feature",
      "properties": {
        "norad_id": 30161,
        "name": "FENGYUN 1C DEB",
        "group": "fengyun-1c-debris",
        "lat": -63.6200120630148,
        "lon": -5.748242221865483,
        "alt_km": 871.2095992384102,
        "timestamp": "2025-12-10T23:33:13.092373+00:00",
        "meta_object_name": "FENGYUN 1C DEB",
        "meta_object_id": "1999-025TS",
        "meta_epoch": "2025-12-10T12:01:51.283200",
        "meta_mean_motion": 13.49709823,
        "meta_eccentricity": 0.0328381,
        "meta_inclination": 100.5059,
        "meta_ra_of_asc_node": 331.7748,
        "meta_arg_of_pericenter": 263.2973,
        "meta_mean_anomaly": 217.4289,
        "meta_ephemeris_type": 0,
        "meta_classification_type": "U",
        "meta_norad_cat_id": 30161,
        "meta_element_set_no": 999,
        "meta_rev_at_epoch": 92529,
        "meta_bstar": 0.0027178899,
        "meta_mean_motion_dot": 2.353e-05,
        "meta_mean_motion_ddot": 0,
        "tle_line1": "1 30161U 99025TS  25344.50128800  .00002353  00000+0  27179-2 0  9998",
        "tle_line2": "2 30161 100.5059 331.7748 0328381 263.2973 217.4289 13.49709823925299"
      },
      "geometry": {
        "type": "Point",
        "coordinates": [
          -5.748242221865483,
          -63.6200120630148
        ]
      }
    }
  ]
}